CCSDS_OMM_VERS = 2.0
CREATION_DATE  = 
ORIGINATOR     = 

OBJECT_NAME    = STARLINK-35733
OBJECT_ID      = 2025-244U
CENTER_NAME    = EARTH
REF_FRAME      = TEME
TIME_SYSTEM    = UTC
MEAN_ELEMENT_THEORY = SGP/SGP4

EPOCH          = 2025-11-20T06:21:13.881600
MEAN_MOTION    = 15.49327442
ECCENTRICITY   = .00014335
INCLINATION    = 53.1598
RA_OF_ASC_NODE = 21.8986
ARG_OF_PERICENTER = 102.2649
MEAN_ANOMALY   = 257.8520

EPHEMERIS_TYPE = 0
CLASSIFICATION_TYPE = U
NORAD_CAT_ID   = 66224
ELEMENT_SET_NO = 999
REV_AT_EPOCH   = 485
BSTAR          = .13598964E-2
MEAN_MOTION_DOT = .75972E-3
MEAN_MOTION_DDOT = 0

CCSDS_OMM_VERS = 2.0
CREATION_DATE  = 
ORIGINATOR     = 

OBJECT_NAME    = STARLINK-35734
OBJECT_ID      = 2025-244V
CENTER_NAME    = EARTH
REF_FRAME      = TEME
TIME_SYSTEM    = UTC
MEAN_ELEMENT_THEORY = SGP/SGP4

EPOCH          = 2025-11-20T06:21:41.738688
MEAN_MOTION    = 15.49332479
ECCENTRICITY   = .00011435
INCLINATION    = 53.1599
RA_OF_ASC_NODE = 21.8995
ARG_OF_PERICENTER = 91.5019
MEAN_ANOMALY   = 268.6122

EPHEMERIS_TYPE = 0
CLASSIFICATION_TYPE = U
NORAD_CAT_ID   = 66225
ELEMENT_SET_NO = 999
REV_AT_EPOCH   = 485
BSTAR          = .12226527E-2
MEAN_MOTION_DOT = .68203E-3
MEAN_MOTION_DDOT = 0

CCSDS_OMM_VERS = 2.0
CREATION_DATE  = 
ORIGINATOR     = 

OBJECT_NAME    = STARLINK-34466
OBJECT_ID      = 2025-244W
CENTER_NAME    = EARTH
REF_FRAME      = TEME
TIME_SYSTEM    = UTC
MEAN_ELEMENT_THEORY = SGP/SGP4

EPOCH          = 2025-11-20T06:20:43.757376
MEAN_MOTION    = 15.49277557
ECCENTRICITY   = .00006149
INCLINATION    = 53.1597
RA_OF_ASC_NODE = 21.8941
ARG_OF_PERICENTER = 39.4060
MEAN_ANOMALY   = 320.6994

EPHEMERIS_TYPE = 0
CLASSIFICATION_TYPE = U
NORAD_CAT_ID   = 66226
ELEMENT_SET_NO = 999
REV_AT_EPOCH   = 485
BSTAR          = .15926117E-2
MEAN_MOTION_DOT = .89043E-3
MEAN_MOTION_DDOT = 0

CCSDS_OMM_VERS = 2.0
CREATION_DATE  = 
ORIGINATOR     = 

OBJECT_NAME    = STARLINK-34882
OBJECT_ID      = 2025-244X
CENTER_NAME    = EARTH
REF_FRAME      = TEME
TIME_SYSTEM    = UTC
MEAN_ELEMENT_THEORY = SGP/SGP4

EPOCH          = 2025-11-20T06:20:12.619680
MEAN_MOTION    = 15.49346066
ECCENTRICITY   = .00011847
INCLINATION    = 53.1598
RA_OF_ASC_NODE = 21.8915
ARG_OF_PERICENTER = 81.2088
MEAN_ANOMALY   = 278.9055

EPHEMERIS_TYPE = 0
CLASSIFICATION_TYPE = U
NORAD_CAT_ID   = 66227
ELEMENT_SET_NO = 999
REV_AT_EPOCH   = 485
BSTAR          = .16484108E-2
MEAN_MOTION_DOT = .92442E-3
MEAN_MOTION_DDOT = 0

CCSDS_OMM_VERS = 2.0
CREATION_DATE  = 
ORIGINATOR     = 

OBJECT_NAME    = STARLINK-35731
OBJECT_ID      = 2025-244Y
CENTER_NAME    = EARTH
REF_FRAME      = TEME
TIME_SYSTEM    = UTC
MEAN_ELEMENT_THEORY = SGP/SGP4

EPOCH          = 2025-11-20T06:19:42.418560
MEAN_MOTION    = 15.49340098
ECCENTRICITY   = .00015381
INCLINATION    = 53.1598
RA_OF_ASC_NODE = 21.8902
ARG_OF_PERICENTER = 21.5452
MEAN_ANOMALY   = 338.5622

EPHEMERIS_TYPE = 0
CLASSIFICATION_TYPE = U
NORAD_CAT_ID   = 66228
ELEMENT_SET_NO = 999
REV_AT_EPOCH   = 485
BSTAR          = .11135535E-2
MEAN_MOTION_DOT = .62045E-3
MEAN_MOTION_DDOT = 0

CCSDS_OMM_VERS = 2.0
CREATION_DATE  = 
ORIGINATOR     = 

OBJECT_NAME    = STARLINK-35758
OBJECT_ID      = 2025-244Z
CENTER_NAME    = EARTH
REF_FRAME      = TEME
TIME_SYSTEM    = UTC
MEAN_ELEMENT_THEORY = SGP/SGP4

EPOCH          = 2025-11-20T04:46:19.810560
MEAN_MOTION    = 15.49331634
ECCENTRICITY   = .00011067
INCLINATION    = 53.1600
RA_OF_ASC_NODE = 22.1964
ARG_OF_PERICENTER = 75.4010
MEAN_ANOMALY   = 284.7122

EPHEMERIS_TYPE = 0
CLASSIFICATION_TYPE = U
NORAD_CAT_ID   = 66229
ELEMENT_SET_NO = 999
REV_AT_EPOCH   = 484
BSTAR          = .10821161E-2
MEAN_MOTION_DOT = .60248E-3
MEAN_MOTION_DDOT = 0

CCSDS_OMM_VERS = 2.0
CREATION_DATE  = 
ORIGINATOR     = 

OBJECT_NAME    = STARLINK-35736
OBJECT_ID      = 2025-244AA
CENTER_NAME    = EARTH
REF_FRAME      = TEME
TIME_SYSTEM    = UTC
MEAN_ELEMENT_THEORY = SGP/SGP4

EPOCH          = 2025-11-20T06:18:43.533504
MEAN_MOTION    = 15.49350229
ECCENTRICITY   = .00011762
INCLINATION    = 53.1598
RA_OF_ASC_NODE = 21.8853
ARG_OF_PERICENTER = 83.4003
MEAN_ANOMALY   = 276.7140

EPHEMERIS_TYPE = 0
CLASSIFICATION_TYPE = U
NORAD_CAT_ID   = 66230
ELEMENT_SET_NO = 999
REV_AT_EPOCH   = 485
BSTAR          = .16650874E-2
MEAN_MOTION_DOT = .93407E-3
MEAN_MOTION_DDOT = 0

CCSDS_OMM_VERS = 2.0
CREATION_DATE  = 
ORIGINATOR     = 

OBJECT_NAME    = STARLINK-35735
OBJECT_ID      = 2025-244AB
CENTER_NAME    = EARTH
REF_FRAME      = TEME
TIME_SYSTEM    = UTC
MEAN_ELEMENT_THEORY = SGP/SGP4

EPOCH          = 2025-11-20T06:18:13.971744
MEAN_MOTION    = 15.49339918
ECCENTRICITY   = .00012014
INCLINATION    = 53.1598
RA_OF_ASC_NODE = 21.8838
ARG_OF_PERICENTER = 79.1693
MEAN_ANOMALY   = 280.9452

EPHEMERIS_TYPE = 0
CLASSIFICATION_TYPE = U
NORAD_CAT_ID   = 66231
ELEMENT_SET_NO = 999
REV_AT_EPOCH   = 485
BSTAR          = .13426934E-2
MEAN_MOTION_DOT = .75029E-3
MEAN_MOTION_DDOT = 0

CCSDS_OMM_VERS = 2.0
CREATION_DATE  = 
ORIGINATOR     = 

OBJECT_NAME    = STARLINK-35753
OBJECT_ID      = 2025-244AC
CENTER_NAME    = EARTH
REF_FRAME      = TEME
TIME_SYSTEM    = UTC
MEAN_ELEMENT_THEORY = SGP/SGP4

EPOCH          = 2025-11-20T06:17:44.315808
MEAN_MOTION    = 15.49341147
ECCENTRICITY   = .00012719
INCLINATION    = 53.1597
RA_OF_ASC_NODE = 21.8824
ARG_OF_PERICENTER = 84.1934
MEAN_ANOMALY   = 275.9220

EPHEMERIS_TYPE = 0
CLASSIFICATION_TYPE = U
NORAD_CAT_ID   = 66232
ELEMENT_SET_NO = 999
REV_AT_EPOCH   = 485
BSTAR          = .14299256E-2
MEAN_MOTION_DOT = .79987E-3
MEAN_MOTION_DDOT = 0

CCSDS_OMM_VERS = 2.0
CREATION_DATE  = 
ORIGINATOR     = 

OBJECT_NAME    = STARLINK-35626
OBJECT_ID      = 2025-244AD
CENTER_NAME    = EARTH
REF_FRAME      = TEME
TIME_SYSTEM    = UTC
MEAN_ELEMENT_THEORY = SGP/SGP4

EPOCH          = 2025-11-20T06:17:14.650368
MEAN_MOTION    = 15.49337351
ECCENTRICITY   = .00013667
INCLINATION    = 53.1599
RA_OF_ASC_NODE = 21.8798
ARG_OF_PERICENTER = 82.4638
MEAN_ANOMALY   = 277.6526

EPHEMERIS_TYPE = 0
CLASSIFICATION_TYPE = U
NORAD_CAT_ID   = 66233
ELEMENT_SET_NO = 999
REV_AT_EPOCH   = 485
BSTAR          = .1110565E-2
MEAN_MOTION_DOT = .6187E-3
MEAN_MOTION_DDOT = 0

CCSDS_OMM_VERS = 2.0
CREATION_DATE  = 
ORIGINATOR     = 

OBJECT_NAME    = STARLINK-35537
OBJECT_ID      = 2025-245A
CENTER_NAME    = EARTH
REF_FRAME      = TEME
TIME_SYSTEM    = UTC
MEAN_ELEMENT_THEORY = SGP/SGP4

EPOCH          = 2025-11-20T06:00:02.000160
MEAN_MOTION    = 15.51797703
ECCENTRICITY   = .00016468
INCLINATION    = 53.1603
RA_OF_ASC_NODE = 75.8216
ARG_OF_PERICENTER = 88.8059
MEAN_ANOMALY   = 150.2458

EPHEMERIS_TYPE = 0
CLASSIFICATION_TYPE = U
NORAD_CAT_ID   = 66234
ELEMENT_SET_NO = 999
REV_AT_EPOCH   = 449
BSTAR          = -.35023247E-1
MEAN_MOTION_DOT = -.1878919E-1
MEAN_MOTION_DDOT = 0

CCSDS_OMM_VERS = 2.0
CREATION_DATE  = 
ORIGINATOR     = 

OBJECT_NAME    = STARLINK-35541
OBJECT_ID      = 2025-245B
CENTER_NAME    = EARTH
REF_FRAME      = TEME
TIME_SYSTEM    = UTC
MEAN_ELEMENT_THEORY = SGP/SGP4

EPOCH          = 2025-11-20T06:00:02.000160
MEAN_MOTION    = 15.51795973
ECCENTRICITY   = .0001471
INCLINATION    = 53.1606
RA_OF_ASC_NODE = 75.8169
ARG_OF_PERICENTER = 81.8756
MEAN_ANOMALY   = 159.0938

EPHEMERIS_TYPE = 0
CLASSIFICATION_TYPE = U
NORAD_CAT_ID   = 66235
ELEMENT_SET_NO = 999
REV_AT_EPOCH   = 443
BSTAR          = -.34990967E-1
MEAN_MOTION_DOT = -.1877179E-1
MEAN_MOTION_DDOT = 0

