STARLINK-35733          
1 66224U 25244U   25324.26474400  .00075972  00000+0  13599-2 0  9998
2 66224  53.1598  21.8986 0001433 102.2649 257.8520 15.49327442  4859
STARLINK-35734          
1 66225U 25244V   25324.26506642  .00068203  00000+0  12227-2 0  9999
2 66225  53.1599  21.8995 0001143  91.5019 268.6122 15.49332479  4854
STARLINK-34466          
1 66226U 25244W   25324.26439534  .00089043  00000+0  15926-2 0  9999
2 66226  53.1597  21.8941 0000614  39.4060 320.6994 15.49277557  4854
STARLINK-34882          
1 66227U 25244X   25324.26403495  .00092442  00000+0  16484-2 0  9994
2 66227  53.1598  21.8915 0001184  81.2088 278.9055 15.49346066  4850
STARLINK-35731          
1 66228U 25244Y   25324.26368540  .00062045  00000+0  11136-2 0  9991
2 66228  53.1598  21.8902 0001538  21.5452 338.5622 15.49340098  4854
STARLINK-35758          
1 66229U 25244Z   25324.19884040  .00060248  00000+0  10821-2 0  9995
2 66229  53.1600  22.1964 0001106  75.4010 284.7122 15.49331634  4842
STARLINK-35736          
1 66230U 25244AA  25324.26300386  .00093407  00000+0  16651-2 0  9991
2 66230  53.1598  21.8853 0001176  83.4003 276.7140 15.49350229  4854
STARLINK-35735          
1 66231U 25244AB  25324.26266171  .00075029  00000+0  13427-2 0  9993
2 66231  53.1598  21.8838 0001201  79.1693 280.9452 15.49339918  4859
STARLINK-35753          
1 66232U 25244AC  25324.26231847  .00079987  00000+0  14299-2 0  9991
2 66232  53.1597  21.8824 0001271  84.1934 275.9220 15.49341147  4859
STARLINK-35626          
1 66233U 25244AD  25324.26197512  .00061870  00000+0  11106-2 0  9998
2 66233  53.1599  21.8798 0001366  82.4638 277.6526 15.49337351  4859
STARLINK-35537          
1 66234U 25245A   25324.25002315 -.01878919  00000+0 -35023-1 0  9991
2 66234  53.1603  75.8216 0001646  88.8059 150.2458 15.51797703  4492
STARLINK-35541          
1 66235U 25245B   25324.25002315 -.01877179  00000+0 -34991-1 0  9992
2 66235  53.1606  75.8169 0001471  81.8756 159.0938 15.51795973  4437
